ADRAS-J                 
1 58992U 24034A   24130.39422152  .00005415  00000+0  50970-3 0  9992
2 58992  98.2101 101.6762 0044467 174.1717 186.0029 14.93557546 12077
